{
  "type": "FeatureCollection",
  "features": [
    {
      "type": "Feature",
      "properties": {
        "norad_id": 67081,
        "name": "STARLINK-35864",
        "group": "last-30-days",
        "lat": -19.605213284139804,
        "lon": 43.1722608413171,
        "alt_km": 327.5298562469334,
        "timestamp": "2025-12-24T18:55:54.779557+00:00",
        "meta_object_name": "STARLINK-35864",
        "meta_object_id": "2025-298G",
        "meta_epoch": "2025-12-24T06:00:02.000160",
        "meta_mean_motion": 15.84489565,
        "meta_eccentricity": 0.00039011,
        "meta_inclination": 69.9965,
        "meta_ra_of_asc_node": 217.2612,
        "meta_arg_of_pericenter": 272.8921,
        "meta_mean_anomaly": 97.5045,
        "meta_ephemeris_type": 0,
        "meta_classification_type": "U",
        "meta_norad_cat_id": 67081,
        "meta_element_set_no": 999,
        "meta_rev_at_epoch": 282,
        "meta_bstar": -0.0088179154,
        "meta_mean_motion_dot": -0.01751047,
        "meta_mean_motion_ddot": 0,
        "tle_line1": "1 67081U 25298G   25358.25002315 -.01751047  00000+0 -88179-2 0  9990",
        "tle_line2": "2 67081  69.9965 217.2612 0003901 272.8921  97.5045 15.84489565  2820"
      },
      "geometry": {
        "type": "Point",
        "coordinates": [
          43.1722608413171,
          -19.605213284139804
        ]
      }
    },
    {
      "type": "Feature",
      "properties": {
        "norad_id": 67082,
        "name": "STARLINK-36035",
        "group": "last-30-days",
        "lat": -21.53196686882495,
        "lon": 43.97845286627995,
        "alt_km": 327.6804392177728,
        "timestamp": "2025-12-24T18:55:54.779570+00:00",
        "meta_object_name": "STARLINK-36035",
        "meta_object_id": "2025-298H",
        "meta_epoch": "2025-12-24T06:00:02.000160",
        "meta_mean_motion": 15.84482716,
        "meta_eccentricity": 0.00039657,
        "meta_inclination": 69.9965,
        "meta_ra_of_asc_node": 217.2589,
        "meta_arg_of_pericenter": 274.555,
        "meta_mean_anomaly": 97.9238,
        "meta_ephemeris_type": 0,
        "meta_classification_type": "U",
        "meta_norad_cat_id": 67082,
        "meta_element_set_no": 999,
        "meta_rev_at_epoch": 282,
        "meta_bstar": -0.0088065313,
        "meta_mean_motion_dot": -0.01748689,
        "meta_mean_motion_ddot": 0,
        "tle_line1": "1 67082U 25298H   25358.25002315 -.01748689  00000+0 -88065-2 0  9993",
        "tle_line2": "2 67082  69.9965 217.2589 0003965 274.5550  97.9238 15.84482716  2820"
      },
      "geometry": {
        "type": "Point",
        "coordinates": [
          43.97845286627995,
          -21.53196686882495
        ]
      }
    },
    {
      "type": "Feature",
      "properties": {
        "norad_id": 67083,
        "name": "STARLINK-36170",
        "group": "last-30-days",
        "lat": -23.495103240523186,
        "lon": 44.82371296588619,
        "alt_km": 327.78933793531723,
        "timestamp": "2025-12-24T18:55:54.779582+00:00",
        "meta_object_name": "STARLINK-36170",
        "meta_object_id": "2025-298J",
        "meta_epoch": "2025-12-24T06:00:02.000160",
        "meta_mean_motion": 15.84476147,
        "meta_eccentricity": 0.0003959,
        "meta_inclination": 69.9962,
        "meta_ra_of_asc_node": 217.2561,
        "meta_arg_of_pericenter": 274.867,
        "meta_mean_anomaly": 99.7397,
        "meta_ephemeris_type": 0,
        "meta_classification_type": "U",
        "meta_norad_cat_id": 67083,
        "meta_element_set_no": 999,
        "meta_rev_at_epoch": 282,
        "meta_bstar": -0.008811566,
        "meta_mean_motion_dot": -0.01749064,
        "meta_mean_motion_ddot": 0,
        "tle_line1": "1 67083U 25298J   25358.25002315 -.01749064  00000+0 -88116-2 0  9999",
        "tle_line2": "2 67083  69.9962 217.2561 0003959 274.8670  99.7397 15.84476147  2824"
      },
      "geometry": {
        "type": "Point",
        "coordinates": [
          44.82371296588619,
          -23.495103240523186
        ]
      }
    },
    {
      "type": "Feature",
      "properties": {
        "norad_id": 67084,
        "name": "STARLINK-36166",
        "group": "last-30-days",
        "lat": -25.351620920196844,
        "lon": 45.648386299936355,
        "alt_km": 327.8444002459564,
        "timestamp": "2025-12-24T18:55:54.779591+00:00",
        "meta_object_name": "STARLINK-36166",
        "meta_object_id": "2025-298K",
        "meta_epoch": "2025-12-24T06:00:02.000160",
        "meta_mean_motion": 15.84473796,
        "meta_eccentricity": 0.00039934,
        "meta_inclination": 69.9964,
        "meta_ra_of_asc_node": 217.2535,
        "meta_arg_of_pericenter": 274.7347,
        "meta_mean_anomaly": 101.882,
        "meta_ephemeris_type": 0,
        "meta_classification_type": "U",
        "meta_norad_cat_id": 67084,
        "meta_element_set_no": 999,
        "meta_rev_at_epoch": 276,
        "meta_bstar": -0.0088148889,
        "meta_mean_motion_dot": -0.01749505,
        "meta_mean_motion_ddot": 0,
        "tle_line1": "1 67084U 25298K   25358.25002315 -.01749505  00000+0 -88149-2 0  9996",
        "tle_line2": "2 67084  69.9964 217.2535 0003993 274.7347 101.8820 15.84473796  2762"
      },
      "geometry": {
        "type": "Point",
        "coordinates": [
          45.648386299936355,
          -25.351620920196844
        ]
      }
    },
    {
      "type": "Feature",
      "properties": {
        "norad_id": 67085,
        "name": "STARLINK-35794",
        "group": "last-30-days",
        "lat": -27.181876223927564,
        "lon": 46.48919387976161,
        "alt_km": 327.6955023373803,
        "timestamp": "2025-12-24T18:55:54.779601+00:00",
        "meta_object_name": "STARLINK-35794",
        "meta_object_id": "2025-298L",
        "meta_epoch": "2025-12-24T06:00:02.000160",
        "meta_mean_motion": 15.84467948,
        "meta_eccentricity": 0.00038578,
        "meta_inclination": 69.9963,
        "meta_ra_of_asc_node": 217.2512,
        "meta_arg_of_pericenter": 268.7973,
        "meta_mean_anomaly": 109.8023,
        "meta_ephemeris_type": 0,
        "meta_classification_type": "U",
        "meta_norad_cat_id": 67085,
        "meta_element_set_no": 999,
        "meta_rev_at_epoch": 282,
        "meta_bstar": -0.0087900689,
        "meta_mean_motion_dot": -0.01744663,
        "meta_mean_motion_ddot": 0,
        "tle_line1": "1 67085U 25298L   25358.25002315 -.01744663  00000+0 -87901-2 0  9992",
        "tle_line2": "2 67085  69.9963 217.2512 0003857 268.7973 109.8023 15.84467948  2826"
      },
      "geometry": {
        "type": "Point",
        "coordinates": [
          46.48919387976161,
          -27.181876223927564
        ]
      }
    },
    {
      "type": "Feature",
      "properties": {
        "norad_id": 67086,
        "name": "STARLINK-35841",
        "group": "last-30-days",
        "lat": -29.209387835151322,
        "lon": 47.456293070474324,
        "alt_km": 327.88754941519437,
        "timestamp": "2025-12-24T18:55:54.779613+00:00",
        "meta_object_name": "STARLINK-35841",
        "meta_object_id": "2025-298M",
        "meta_epoch": "2025-12-24T06:00:02.000160",
        "meta_mean_motion": 15.8446182,
        "meta_eccentricity": 0.00038855,
        "meta_inclination": 69.9962,
        "meta_ra_of_asc_node": 217.2484,
        "meta_arg_of_pericenter": 271.5702,
        "meta_mean_anomaly": 109.2496,
        "meta_ephemeris_type": 0,
        "meta_classification_type": "U",
        "meta_norad_cat_id": 67086,
        "meta_element_set_no": 999,
        "meta_rev_at_epoch": 282,
        "meta_bstar": -0.0088163666,
        "meta_mean_motion_dot": -0.01748745,
        "meta_mean_motion_ddot": 0,
        "tle_line1": "1 67086U 25298M   25358.25002315 -.01748745  00000+0 -88164-2 0  9990",
        "tle_line2": "2 67086  69.9962 217.2484 0003885 271.5702 109.2496 15.84461820  2828"
      },
      "geometry": {
        "type": "Point",
        "coordinates": [
          47.456293070474324,
          -29.209387835151322
        ]
      }
    },
    {
      "type": "Feature",
      "properties": {
        "norad_id": 67087,
        "name": "STARLINK-35842",
        "group": "last-30-days",
        "lat": -29.69341170418499,
        "lon": 47.69324631869257,
        "alt_km": 330.8212649132238,
        "timestamp": "2025-12-24T18:55:54.779623+00:00",
        "meta_object_name": "STARLINK-35842",
        "meta_object_id": "2025-298N",
        "meta_epoch": "2025-12-24T06:00:02.000160",
        "meta_mean_motion": 15.84242522,
        "meta_eccentricity": 0.00039748,
        "meta_inclination": 69.9963,
        "meta_ra_of_asc_node": 217.2463,
        "meta_arg_of_pericenter": 274.6108,
        "meta_mean_anomaly": 107.9276,
        "meta_ephemeris_type": 0,
        "meta_classification_type": "U",
        "meta_norad_cat_id": 67087,
        "meta_element_set_no": 999,
        "meta_rev_at_epoch": 282,
        "meta_bstar": -0.012408033,
        "meta_mean_motion_dot": -0.02433338,
        "meta_mean_motion_ddot": 0,
        "tle_line1": "1 67087U 25298N   25358.25002315 -.02433338  00000+0 -12408-1 0  9998",
        "tle_line2": "2 67087  69.9963 217.2463 0003974 274.6108 107.9276 15.84242522  2827"
      },
      "geometry": {
        "type": "Point",
        "coordinates": [
          47.69324631869257,
          -29.69341170418499
        ]
      }
    }
  ]
}